[{"OBJECT_NAME":"GRBBETA","OBJECT_ID":"2024-128C","EPOCH":"2026-04-04T12:52:39.135648","MEAN_MOTION":15.06062892,"ECCENTRICITY":0.00490376,"INCLINATION":61.9881,"RA_OF_ASC_NODE":114.5523,"ARG_OF_PERICENTER":119.1605,"MEAN_ANOMALY":241.4408,"EPHEMERIS_TYPE":0,"CLASSIFICATION_TYPE":"U","NORAD_CAT_ID":60237,"ELEMENT_SET_NO":999,"REV_AT_EPOCH":9517,"BSTAR":0.00041916487,"MEAN_MOTION_DOT":6.103e-5,"MEAN_MOTION_DDOT":0},{"OBJECT_NAME":"TRANSPORTER-11 OBJECT A","OBJECT_ID":"2024-149A","EPOCH":"2026-04-04T18:03:21.447648","MEAN_MOTION":15.31726871,"ECCENTRICITY":0.0004786,"INCLINATION":97.375,"RA_OF_ASC_NODE":174.9732,"ARG_OF_PERICENTER":116.9573,"MEAN_ANOMALY":243.2157,"EPHEMERIS_TYPE":0,"CLASSIFICATION_TYPE":"U","NORAD_CAT_ID":60468,"ELEMENT_SET_NO":999,"REV_AT_EPOCH":9081,"BSTAR":0.00045743,"MEAN_MOTION_DOT":0.00013951,"MEAN_MOTION_DDOT":0},{"OBJECT_NAME":"WARATAH SEED-1","OBJECT_ID":"2024-149B","EPOCH":"2026-04-04T18:34:46.243776","MEAN_MOTION":15.34131132,"ECCENTRICITY":0.0003298,"INCLINATION":97.3704,"RA_OF_ASC_NODE":175.38,"ARG_OF_PERICENTER":119.3297,"MEAN_ANOMALY":240.8276,"EPHEMERIS_TYPE":0,"CLASSIFICATION_TYPE":"U","NORAD_CAT_ID":60469,"ELEMENT_SET_NO":999,"REV_AT_EPOCH":9085,"BSTAR":0.00057569,"MEAN_MOTION_DOT":0.00018965,"MEAN_MOTION_DDOT":0},{"OBJECT_NAME":"PHISAT 2","OBJECT_ID":"2024-149C","EPOCH":"2026-04-04T18:09:43.269984","MEAN_MOTION":15.30020976,"ECCENTRICITY":0.0003004,"INCLINATION":97.3775,"RA_OF_ASC_NODE":174.4362,"ARG_OF_PERICENTER":121.9967,"MEAN_ANOMALY":238.1566,"EPHEMERIS_TYPE":0,"CLASSIFICATION_TYPE":"U","NORAD_CAT_ID":60470,"ELEMENT_SET_NO":999,"REV_AT_EPOCH":9076,"BSTAR":0.00041514,"MEAN_MOTION_DOT":0.00011996,"MEAN_MOTION_DDOT":0},{"OBJECT_NAME":"LEMUR-2-TOMATOKECHUP","OBJECT_ID":"2024-149D","EPOCH":"2026-04-04T18:46:38.830368","MEAN_MOTION":15.34536711,"ECCENTRICITY":0.0003212,"INCLINATION":97.3809,"RA_OF_ASC_NODE":176.7261,"ARG_OF_PERICENTER":121.4946,"MEAN_ANOMALY":238.6611,"EPHEMERIS_TYPE":0,"CLASSIFICATION_TYPE":"U","NORAD_CAT_ID":60471,"ELEMENT_SET_NO":999,"REV_AT_EPOCH":9090,"BSTAR":0.00052096,"MEAN_MOTION_DOT":0.00017372,"MEAN_MOTION_DDOT":0},{"OBJECT_NAME":"CONNECTA IOT-1","OBJECT_ID":"2024-149E","EPOCH":"2026-04-04T18:49:33.104352","MEAN_MOTION":15.22973707,"ECCENTRICITY":0.0002818,"INCLINATION":97.378,"RA_OF_ASC_NODE":172.3386,"ARG_OF_PERICENTER":140.4278,"MEAN_ANOMALY":219.7165,"EPHEMERIS_TYPE":0,"CLASSIFICATION_TYPE":"U","NORAD_CAT_ID":60472,"ELEMENT_SET_NO":999,"REV_AT_EPOCH":9062,"BSTAR":0.00028453,"MEAN_MOTION_DOT":6.617e-5,"MEAN_MOTION_DDOT":0},{"OBJECT_NAME":"LOPEN","OBJECT_ID":"2024-149F","EPOCH":"2026-04-04T18:28:59.051424","MEAN_MOTION":15.3761381,"ECCENTRICITY":0.000256,"INCLINATION":97.379,"RA_OF_ASC_NODE":177.6817,"ARG_OF_PERICENTER":133.4846,"MEAN_ANOMALY":226.6612,"EPHEMERIS_TYPE":0,"CLASSIFICATION_TYPE":"U","NORAD_CAT_ID":60473,"ELEMENT_SET_NO":999,"REV_AT_EPOCH":9097,"BSTAR":0.00061403,"MEAN_MOTION_DOT":0.00022627,"MEAN_MOTION_DDOT":0},{"OBJECT_NAME":"ROCK","OBJECT_ID":"2024-149G","EPOCH":"2026-04-04T18:09:57.214080","MEAN_MOTION":15.37625556,"ECCENTRICITY":0.0002911,"INCLINATION":97.3784,"RA_OF_ASC_NODE":177.6872,"ARG_OF_PERICENTER":131.1592,"MEAN_ANOMALY":228.9904,"EPHEMERIS_TYPE":0,"CLASSIFICATION_TYPE":"U","NORAD_CAT_ID":60474,"ELEMENT_SET_NO":999,"REV_AT_EPOCH":9097,"BSTAR":0.00059462,"MEAN_MOTION_DOT":0.00021916,"MEAN_MOTION_DDOT":0},{"OBJECT_NAME":"CONNECTA IOT-3","OBJECT_ID":"2024-149H","EPOCH":"2026-04-04T16:11:48.429312","MEAN_MOTION":15.22979703,"ECCENTRICITY":0.0003972,"INCLINATION":97.3755,"RA_OF_ASC_NODE":172.0067,"ARG_OF_PERICENTER":141.3434,"MEAN_ANOMALY":218.8087,"EPHEMERIS_TYPE":0,"CLASSIFICATION_TYPE":"U","NORAD_CAT_ID":60475,"ELEMENT_SET_NO":999,"REV_AT_EPOCH":9061,"BSTAR":0.00030692,"MEAN_MOTION_DOT":7.146e-5,"MEAN_MOTION_DDOT":0},{"OBJECT_NAME":"QUBE","OBJECT_ID":"2024-149J","EPOCH":"2026-04-04T19:34:46.593120","MEAN_MOTION":15.43915952,"ECCENTRICITY":0.0003167,"INCLINATION":97.3784,"RA_OF_ASC_NODE":180.026,"ARG_OF_PERICENTER":129.0901,"MEAN_ANOMALY":231.0629,"EPHEMERIS_TYPE":0,"CLASSIFICATION_TYPE":"U","NORAD_CAT_ID":60476,"ELEMENT_SET_NO":999,"REV_AT_EPOCH":9113,"BSTAR":0.00056321,"MEAN_MOTION_DOT":0.00025562,"MEAN_MOTION_DDOT":0},{"OBJECT_NAME":"WREN-1","OBJECT_ID":"2024-149L","EPOCH":"2026-04-04T18:43:54.028416","MEAN_MOTION":15.38768971,"ECCENTRICITY":0.0005286,"INCLINATION":97.3779,"RA_OF_ASC_NODE":178.2815,"ARG_OF_PERICENTER":155.3768,"MEAN_ANOMALY":204.773,"EPHEMERIS_TYPE":0,"CLASSIFICATION_TYPE":"U","NORAD_CAT_ID":60478,"ELEMENT_SET_NO":999,"REV_AT_EPOCH":9102,"BSTAR":0.00077079,"MEAN_MOTION_DOT":0.00029547,"MEAN_MOTION_DDOT":0},{"OBJECT_NAME":"TOMORROW-S1","OBJECT_ID":"2024-149M","EPOCH":"2026-04-04T19:05:34.428768","MEAN_MOTION":15.3170541,"ECCENTRICITY":0.0003927,"INCLINATION":97.3763,"RA_OF_ASC_NODE":175.5534,"ARG_OF_PERICENTER":132.0225,"MEAN_ANOMALY":228.1351,"EPHEMERIS_TYPE":0,"CLASSIFICATION_TYPE":"U","NORAD_CAT_ID":60479,"ELEMENT_SET_NO":999,"REV_AT_EPOCH":9085,"BSTAR":0.00038385,"MEAN_MOTION_DOT":0.00011682,"MEAN_MOTION_DDOT":0},{"OBJECT_NAME":"FLOCK 4BE-18","OBJECT_ID":"2024-149N","EPOCH":"2026-04-04T16:30:24.446880","MEAN_MOTION":15.39493789,"ECCENTRICITY":0.0004936,"INCLINATION":97.3741,"RA_OF_ASC_NODE":177.7808,"ARG_OF_PERICENTER":150.3314,"MEAN_ANOMALY":209.8212,"EPHEMERIS_TYPE":0,"CLASSIFICATION_TYPE":"U","NORAD_CAT_ID":60480,"ELEMENT_SET_NO":999,"REV_AT_EPOCH":9099,"BSTAR":0.00066209,"MEAN_MOTION_DOT":0.00025963,"MEAN_MOTION_DDOT":0},{"OBJECT_NAME":"FLOCK 4BE-7","OBJECT_ID":"2024-149P","EPOCH":"2026-04-04T16:07:34.504896","MEAN_MOTION":15.37443554,"ECCENTRICITY":0.0003998,"INCLINATION":97.3772,"RA_OF_ASC_NODE":177.2814,"ARG_OF_PERICENTER":150.5009,"MEAN_ANOMALY":209.6462,"EPHEMERIS_TYPE":0,"CLASSIFICATION_TYPE":"U","NORAD_CAT_ID":60481,"ELEMENT_SET_NO":999,"REV_AT_EPOCH":9094,"BSTAR":0.00073435,"MEAN_MOTION_DOT":0.00026947,"MEAN_MOTION_DDOT":0},{"OBJECT_NAME":"FLOCK 4BE-16","OBJECT_ID":"2024-149R","EPOCH":"2026-04-04T17:31:09.084000","MEAN_MOTION":15.85111959,"ECCENTRICITY":0.0004506,"INCLINATION":97.3642,"RA_OF_ASC_NODE":181.9486,"ARG_OF_PERICENTER":231.0678,"MEAN_ANOMALY":129.0191,"EPHEMERIS_TYPE":0,"CLASSIFICATION_TYPE":"U","NORAD_CAT_ID":60483,"ELEMENT_SET_NO":999,"REV_AT_EPOCH":9126,"BSTAR":0.0020988,"MEAN_MOTION_DOT":0.0052123,"MEAN_MOTION_DDOT":0},{"OBJECT_NAME":"FLOCK 4BE-26","OBJECT_ID":"2024-149S","EPOCH":"2026-04-04T18:10:54.339168","MEAN_MOTION":15.5051134,"ECCENTRICITY":0.0005667,"INCLINATION":97.3712,"RA_OF_ASC_NODE":178.095,"ARG_OF_PERICENTER":180.2807,"MEAN_ANOMALY":179.8442,"EPHEMERIS_TYPE":0,"CLASSIFICATION_TYPE":"U","NORAD_CAT_ID":60484,"ELEMENT_SET_NO":999,"REV_AT_EPOCH":9102,"BSTAR":0.0025483,"MEAN_MOTION_DOT":0.0014791,"MEAN_MOTION_DDOT":0},{"OBJECT_NAME":"TOMORROW-S2","OBJECT_ID":"2024-149T","EPOCH":"2026-04-04T18:16:17.498496","MEAN_MOTION":15.31701182,"ECCENTRICITY":0.0003743,"INCLINATION":97.383,"RA_OF_ASC_NODE":175.9404,"ARG_OF_PERICENTER":149.8803,"MEAN_ANOMALY":210.2654,"EPHEMERIS_TYPE":0,"CLASSIFICATION_TYPE":"U","NORAD_CAT_ID":60485,"ELEMENT_SET_NO":999,"REV_AT_EPOCH":9084,"BSTAR":0.0003983,"MEAN_MOTION_DOT":0.00012123,"MEAN_MOTION_DDOT":0}]
