GRBBETA                 
1 60237U 24128C   26094.53656407  .00006103  00000+0  41916-3 0  9995
2 60237  61.9881 114.5523 0049037 119.1605 241.4408 15.06062892 95174
TRANSPORTER-11 OBJECT A 
1 60468U 24149A   26094.75233157  .00013951  00000+0  45743-3 0  9992
2 60468  97.3750 174.9732 0004786 116.9573 243.2157 15.31726871 90810
WARATAH SEED-1          
1 60469U 24149B   26094.77414634  .00018965  00000+0  57569-3 0  9995
2 60469  97.3704 175.3800 0003298 119.3297 240.8276 15.34131132 90850
PHISAT 2                
1 60470U 24149C   26094.75675081  .00011996  00000+0  41514-3 0  9990
2 60470  97.3775 174.4362 0003004 121.9967 238.1566 15.30020976 90762
LEMUR-2-TOMATOKECHUP    
1 60471U 24149D   26094.78239387  .00017372  00000+0  52096-3 0  9990
2 60471  97.3809 176.7261 0003212 121.4946 238.6611 15.34536711 90902
CONNECTA IOT-1          
1 60472U 24149E   26094.78441093  .00006617  00000+0  28453-3 0  9990
2 60472  97.3780 172.3386 0002818 140.4278 219.7165 15.22973707 90621
LOPEN                   
1 60473U 24149F   26094.77012791  .00022627  00000+0  61403-3 0  9990
2 60473  97.3790 177.6817 0002560 133.4846 226.6612 15.37613810 90971
ROCK                    
1 60474U 24149G   26094.75691220  .00021916  00000+0  59462-3 0  9991
2 60474  97.3784 177.6872 0002911 131.1592 228.9904 15.37625556 90978
CONNECTA IOT-3          
1 60475U 24149H   26094.67486608  .00007146  00000+0  30692-3 0  9998
2 60475  97.3755 172.0067 0003972 141.3434 218.8087 15.22979703 90619
QUBE                    
1 60476U 24149J   26094.81581705  .00025562  00000+0  56321-3 0  9998
2 60476  97.3784 180.0260 0003167 129.0901 231.0629 15.43915952 91130
WREN-1                  
1 60478U 24149L   26094.78048644  .00029547  00000+0  77079-3 0  9996
2 60478  97.3779 178.2815 0005286 155.3768 204.7730 15.38768971 91027
TOMORROW-S1             
1 60479U 24149M   26094.79553737  .00011682  00000+0  38385-3 0  9990
2 60479  97.3763 175.5534 0003927 132.0225 228.1351 15.31705410 90850
FLOCK 4BE-18            
1 60480U 24149N   26094.68778295  .00025963  00000+0  66209-3 0  9991
2 60480  97.3741 177.7808 0004936 150.3314 209.8212 15.39493789 90997
FLOCK 4BE-7             
1 60481U 24149P   26094.67192714  .00026947  00000+0  73435-3 0  9999
2 60481  97.3772 177.2814 0003998 150.5009 209.6462 15.37443554 90947
FLOCK 4BE-16            
1 60483U 24149R   26094.72996625  .00521230  00000+0  20988-2 0  9999
2 60483  97.3642 181.9486 0004506 231.0678 129.0191 15.85111959 91269
FLOCK 4BE-26            
1 60484U 24149S   26094.75757337  .00147910  00000+0  25483-2 0  9992
2 60484  97.3712 178.0950 0005667 180.2807 179.8442 15.50511340 91025
TOMORROW-S2             
1 60485U 24149T   26094.76131364  .00012123  00000+0  39830-3 0  9999
2 60485  97.3830 175.9404 0003743 149.8803 210.2654 15.31701182 90845
